0 METEOR 2-5 DEB
1 38535U 79095CC  13282.08894276  .00003204  00000-0  16655-2 0   641
2 38535 081.1996 047.6010 0016284 242.1438 118.3226 14.14430502251299
0 METEOR 2-5 DEB
1 38535U 79095CC  13283.07919170  .00003265  00000-0  16964-2 0   653
2 38535 081.1986 046.6179 0017953 239.0512 120.9913 14.14439464251439
0 METEOR 2-5 DEB
1 38535U 79095CC  13284.06951556  .00003410  00000-0  17725-2 0   666
2 38535 081.1999 045.6524 0015330 242.0255 117.9833 14.14449904251573
0 METEOR 2-5 DEB
1 38535U 79095CC  13286.05017417  .00003479  00000-0  18073-2 0   679
2 38535 081.1960 043.6911 0016896 243.5990 116.4431 14.14466116251852
0 METEOR 2-5 DEB
1 38535U 79095CC  13287.04047967  .00003829  00000-0  19915-2 0   688
2 38535 081.1875 042.7510 0008613 282.6686 077.2386 14.14479211251994
0 METEOR 2-5 DEB
1 38535U 79095CC  13290.01142880  .00004001  00000-0  20803-2 0   691
2 38535 081.1954 039.8345 0007309 285.2413 074.9075 14.14507471252410
